CTC2_L_00468032-01
1 10248U 24158YQ  26075.70046296  .00000000  00000+0  00000-0 0  9998
2 10248  88.0000 310.0000 0000000   0.0000 155.0000 14.57888518    14
CTC2_L_00468032-02
1 10249U 26944GT  26075.70046296  .00000000  00000+0  00000-0 0  9994
2 10249  88.0000 310.0000 0000000   0.0000 200.0000 14.57888518    16
CTC2_L_00468032-03
1 10250U 23026FO  26075.70046296  .00000000  00000+0  00000-0 0  9994
2 10250  88.0000 310.0000 0000000   0.0000 245.0000 14.57888518    17
CTC2_L_00468032-04
1 10251U 24537IQ  26075.70046296  .00000000  00000+0  00000-0 0  9993
2 10251  88.0000 310.0000 0000000   0.0000 290.0000 14.57888518    18
CTC2_L_00468032-05
1 10252U 25311SK  26075.70046296  .00000000  00000+0  00000-0 0  9995
2 10252  88.0000 310.0000 0000000   0.0000 335.0000 14.57888518    19
CTC2_L_00468032-06
1 10253U 26544OT  26075.70046296  .00000000  00000+0  00000-0 0  9995
2 10253  88.0000 310.0000 0000000   0.0000  20.0000 14.57888518    11
CTC2_L_00468032-07
1 10254U 22685PL  26075.70046296  .00000000  00000+0  00000-0 0  9998
2 10254  88.0000 310.0000 0000000   0.0000  65.0000 14.57888518    11
CTC2_L_00468032-08
1 10255U 23871TL  26075.70046296  .00000000  00000+0  00000-0 0  9997
2 10255  88.0000 310.0000 0000000   0.0000 110.0000 14.57888518    13
CTC2_L_00468033-01
1 10256U 26969GO  26075.70046296  .00000000  00000+0  00000-0 0  9999
2 10256  88.0000 320.0000 0000000   0.0000 160.0000 14.57888518    10
CTC2_L_00468033-02
1 10257U 23159QC  26075.70046296  .00000000  00000+0  00000-0 0  9998
2 10257  88.0000 320.0000 0000000   0.0000 205.0000 14.57888518    11
CTC2_L_00468033-03
1 10258U 24843NY  26075.70046296  .00000000  00000+0  00000-0 0  9990
2 10258  88.0000 320.0000 0000000   0.0000 250.0000 14.57888518    12
CTC2_L_00468033-04
1 10259U 23053SH  26075.70046296  .00000000  00000+0  00000-0 0  9993
2 10259  88.0000 320.0000 0000000   0.0000 295.0000 14.57888518    12
CTC2_L_00468033-05
1 10260U 25861F   26075.70046296  .00000000  00000+0  00000-0 0  9994
2 10260  88.0000 320.0000 0000000   0.0000 340.0000 14.57888518    15
CTC2_L_00468033-06
1 10261U 22567HF  26075.70046296  .00000000  00000+0  00000-0 0  9995
2 10261  88.0000 320.0000 0000000   0.0000  25.0000 14.57888518    16
CTC2_L_00468033-07
1 10262U 26237KF  26075.70046296  .00000000  00000+0  00000-0 0  9994
2 10262  88.0000 320.0000 0000000   0.0000  70.0000 14.57888518    17
CTC2_L_00468033-08
1 10263U 25847HR  26075.70046296  .00000000  00000+0  00000-0 0  9991
2 10263  88.0000 320.0000 0000000   0.0000 115.0000 14.57888518    18
CTC2_L_00468034-01
1 10264U 24514JE  26075.70046296  .00000000  00000+0  00000-0 0  9992
2 10264  88.0000 330.0000 0000000   0.0000 165.0000 14.57888518    15
CTC2_L_00468034-02
1 10265U 24371LY  26075.70046296  .00000000  00000+0  00000-0 0  9994
2 10265  88.0000 330.0000 0000000   0.0000 210.0000 14.57888518    17
CTC2_L_00468034-03
1 10266U 25610SB  26075.70046296  .00000000  00000+0  00000-0 0  9992
2 10266  88.0000 330.0000 0000000   0.0000 255.0000 14.57888518    17
CTC2_L_00468034-04
1 10267U 23359IX  26075.70046296  .00000000  00000+0  00000-0 0  9991
2 10267  88.0000 330.0000 0000000   0.0000 300.0000 14.57888518    19
CTC2_L_00468034-05
1 10268U 23260VX  26075.70046296  .00000000  00000+0  00000-0 0  9993
2 10268  88.0000 330.0000 0000000   0.0000 345.0000 14.57888518    19
CTC2_L_00468034-06
1 10269U 24243ZO  26075.70046296  .00000000  00000+0  00000-0 0  9996
2 10269  88.0000 330.0000 0000000   0.0000  30.0000 14.57888518    11
CTC2_L_00468034-07
1 10270U 23315EB  26075.70046296  .00000000  00000+0  00000-0 0  9997
2 10270  88.0000 330.0000 0000000   0.0000  75.0000 14.57888518    12
CTC2_L_00468034-08
1 10271U 22452UZ  26075.70046296  .00000000  00000+0  00000-0 0  9999
2 10271  88.0000 330.0000 0000000   0.0000 120.0000 14.57888518    14
CTC2_L_00468035-01
1 10272U 23704AA  26075.70046296  .00000000  00000+0  00000-0 0  9991
2 10272  88.0000 340.0000 0000000   0.0000 170.0000 14.57888518    11
CTC2_L_00468035-02
1 10273U 23704RX  26075.70046296  .00000000  00000+0  00000-0 0  9992
2 10273  88.0000 340.0000 0000000   0.0000 215.0000 14.57888518    12
CTC2_L_00468035-03
1 10274U 23536UH  26075.70046296  .00000000  00000+0  00000-0 0  9996
2 10274  88.0000 340.0000 0000000   0.0000 260.0000 14.57888518    13
CTC2_L_00468035-04
1 10275U 25509IT  26075.70046296  .00000000  00000+0  00000-0 0  9999
2 10275  88.0000 340.0000 0000000   0.0000 305.0000 14.57888518    14
CTC2_L_00468035-05
1 10276U 24837RV  26075.70046296  .00000000  00000+0  00000-0 0  9993
2 10276  88.0000 340.0000 0000000   0.0000 350.0000 14.57888518    15
CTC2_L_00468035-06
1 10277U 23123FG  26075.70046296  .00000000  00000+0  00000-0 0  9991
2 10277  88.0000 340.0000 0000000   0.0000  35.0000 14.57888518    16
CTC2_L_00468035-07
1 10278U 24005ZV  26075.70046296  .00000000  00000+0  00000-0 0  9992
2 10278  88.0000 340.0000 0000000   0.0000  80.0000 14.57888518    17
CTC2_L_00468035-08
1 10279U 22346AN  26075.70046296  .00000000  00000+0  00000-0 0  9999
2 10279  88.0000 340.0000 0000000   0.0000 125.0000 14.57888518    18
CTC2_L_00468036-01
1 10280U 23082DV  26075.70046296  .00000000  00000+0  00000-0 0  9999
2 10280  88.0000 350.0000 0000000   0.0000 175.0000 14.57888518    16
CTC2_L_00468036-02
1 10281U 22920GM  26075.70046296  .00000000  00000+0  00000-0 0  9990
2 10281  88.0000 350.0000 0000000   0.0000 220.0000 14.57888518    18
CTC2_L_00468036-03
1 10282U 22198HY  26075.70046296  .00000000  00000+0  00000-0 0  9998
2 10282  88.0000 350.0000 0000000   0.0000 265.0000 14.57888518    18
CTC2_L_00468036-04
1 10283U 24824KQ  26075.70046296  .00000000  00000+0  00000-0 0  9997
2 10283  88.0000 350.0000 0000000   0.0000 310.0000 14.57888518    10
CTC2_L_00468036-05
1 10284U 26745UK  26075.70046296  .00000000  00000+0  00000-0 0  9992
2 10284  88.0000 350.0000 0000000   0.0000 355.0000 14.57888518    10
CTC2_L_00468036-06
1 10285U 23266RJ  26075.70046296  .00000000  00000+0  00000-0 0  9998
2 10285  88.0000 350.0000 0000000   0.0000  40.0000 14.57888518    12
CTC2_L_00468036-07
1 10286U 22920GH  26075.70046296  .00000000  00000+0  00000-0 0  9995
2 10286  88.0000 350.0000 0000000   0.0000  85.0000 14.57888518    12
CTC2_L_00468036-08
1 10287U 24321WZ  26075.70046296  .00000000  00000+0  00000-0 0  9993
2 10287  88.0000 350.0000 0000000   0.0000 130.0000 14.57888518    14
